{
  "type": "FeatureCollection",
  "features": [
    {
      "type": "Feature",
      "properties": {
        "norad_id": 29937,
        "name": "FENGYUN 1C DEB",
        "group": "fengyun-1c-debris",
        "lat": 61.948971204611446,
        "lon": -163.17050660328098,
        "alt_km": 865.6458531946901,
        "timestamp": "2025-12-04T15:47:54.370519+00:00",
        "meta_object_name": "FENGYUN 1C DEB",
        "meta_object_id": "1999-025JK",
        "meta_epoch": "2025-12-04T06:58:39.353664",
        "meta_mean_motion": 14.04357175,
        "meta_eccentricity": 0.00325964,
        "meta_inclination": 98.8033,
        "meta_ra_of_asc_node": 359.5662,
        "meta_arg_of_pericenter": 44.8198,
        "meta_mean_anomaly": 14.4025,
        "meta_ephemeris_type": 0,
        "meta_classification_type": "U",
        "meta_norad_cat_id": 29937,
        "meta_element_set_no": 999,
        "meta_rev_at_epoch": 96817,
        "meta_bstar": 0.0002903378,
        "meta_mean_motion_dot": 4.22e-06,
        "meta_mean_motion_ddot": 0,
        "tle_line1": "1 29937U 99025JK  25338.29073326  .00000422  00000+0  29034-3 0  9996",
        "tle_line2": "2 29937  98.8033 359.5662 0032596  44.8198  14.4025 14.04357175968172"
      },
      "geometry": {
        "type": "Point",
        "coordinates": [
          -163.17050660328098,
          61.948971204611446
        ]
      }
    },
    {
      "type": "Feature",
      "properties": {
        "norad_id": 29938,
        "name": "FENGYUN 1C DEB",
        "group": "fengyun-1c-debris",
        "lat": -47.2707852492254,
        "lon": -21.463148682516657,
        "alt_km": 852.5104451740817,
        "timestamp": "2025-12-04T15:47:54.370530+00:00",
        "meta_object_name": "FENGYUN 1C DEB",
        "meta_object_id": "1999-025JL",
        "meta_epoch": "2025-12-04T05:51:10.850112",
        "meta_mean_motion": 14.07451694,
        "meta_eccentricity": 0.00332084,
        "meta_inclination": 98.8018,
        "meta_ra_of_asc_node": 328.4772,
        "meta_arg_of_pericenter": 335.0958,
        "meta_mean_anomaly": 38.6242,
        "meta_ephemeris_type": 0,
        "meta_classification_type": "U",
        "meta_norad_cat_id": 29938,
        "meta_element_set_no": 999,
        "meta_rev_at_epoch": 96937,
        "meta_bstar": 0.00025819502,
        "meta_mean_motion_dot": 3.94e-06,
        "meta_mean_motion_ddot": 0,
        "tle_line1": "1 29938U 99025JL  25338.24387558  .00000394  00000+0  25820-3 0  9994",
        "tle_line2": "2 29938  98.8018 328.4772 0033208 335.0958  38.6242 14.07451694969379"
      },
      "geometry": {
        "type": "Point",
        "coordinates": [
          -21.463148682516657,
          -47.2707852492254
        ]
      }
    },
    {
      "type": "Feature",
      "properties": {
        "norad_id": 29939,
        "name": "FENGYUN 1C DEB",
        "group": "fengyun-1c-debris",
        "lat": 11.214958701934258,
        "lon": 160.2184645784242,
        "alt_km": 805.8135642963889,
        "timestamp": "2025-12-04T15:47:54.370540+00:00",
        "meta_object_name": "FENGYUN 1C DEB",
        "meta_object_id": "1999-025JM",
        "meta_epoch": "2025-12-04T06:33:13.889952",
        "meta_mean_motion": 14.1208206,
        "meta_eccentricity": 0.00665797,
        "meta_inclination": 98.7096,
        "meta_ra_of_asc_node": 338.1026,
        "meta_arg_of_pericenter": 162.4463,
        "meta_mean_anomaly": 208.9777,
        "meta_ephemeris_type": 0,
        "meta_classification_type": "U",
        "meta_norad_cat_id": 29939,
        "meta_element_set_no": 999,
        "meta_rev_at_epoch": 97341,
        "meta_bstar": 9.6467131e-05,
        "meta_mean_motion_dot": 1.38e-06,
        "meta_mean_motion_ddot": 0,
        "tle_line1": "1 29939U 99025JM  25338.27307743  .00000138  00000+0  96467-4 0  9998",
        "tle_line2": "2 29939  98.7096 338.1026 0066579 162.4463 208.9777 14.12082060973413"
      },
      "geometry": {
        "type": "Point",
        "coordinates": [
          160.2184645784242,
          11.214958701934258
        ]
      }
    },
    {
      "type": "Feature",
      "properties": {
        "norad_id": 29940,
        "name": "FENGYUN 1C DEB",
        "group": "fengyun-1c-debris",
        "lat": 41.73947936949525,
        "lon": 176.34102010872994,
        "alt_km": 774.0131844329453,
        "timestamp": "2025-12-04T15:47:54.370551+00:00",
        "meta_object_name": "FENGYUN 1C DEB",
        "meta_object_id": "1999-025JN",
        "meta_epoch": "2025-12-03T12:41:12.048288",
        "meta_mean_motion": 14.18784528,
        "meta_eccentricity": 0.00746032,
        "meta_inclination": 98.6216,
        "meta_ra_of_asc_node": 347.463,
        "meta_arg_of_pericenter": 126.0529,
        "meta_mean_anomaly": 4.7087,
        "meta_ephemeris_type": 0,
        "meta_classification_type": "U",
        "meta_norad_cat_id": 29940,
        "meta_element_set_no": 999,
        "meta_rev_at_epoch": 97357,
        "meta_bstar": 0.00080576925,
        "meta_mean_motion_dot": 1.68e-05,
        "meta_mean_motion_ddot": 0,
        "tle_line1": "1 29940U 99025JN  25337.52861167  .00001680  00000+0  80577-3 0  9999",
        "tle_line2": "2 29940  98.6216 347.4630 0074603 126.0529   4.7087 14.18784528973575"
      },
      "geometry": {
        "type": "Point",
        "coordinates": [
          176.34102010872994,
          41.73947936949525
        ]
      }
    },
    {
      "type": "Feature",
      "properties": {
        "norad_id": 29942,
        "name": "FENGYUN 1C DEB",
        "group": "fengyun-1c-debris",
        "lat": 22.090108585194557,
        "lon": 41.017141443852175,
        "alt_km": 785.2675536289453,
        "timestamp": "2025-12-04T15:47:54.370561+00:00",
        "meta_object_name": "FENGYUN 1C DEB",
        "meta_object_id": "1999-025JQ",
        "meta_epoch": "2025-12-04T03:56:33.540576",
        "meta_mean_motion": 14.30363789,
        "meta_eccentricity": 0.00487,
        "meta_inclination": 98.6384,
        "meta_ra_of_asc_node": 44.064,
        "meta_arg_of_pericenter": 301.7349,
        "meta_mean_anomaly": 57.9092,
        "meta_ephemeris_type": 0,
        "meta_classification_type": "U",
        "meta_norad_cat_id": 29942,
        "meta_element_set_no": 999,
        "meta_rev_at_epoch": 97746,
        "meta_bstar": 0.0014256114,
        "meta_mean_motion_dot": 3.709e-05,
        "meta_mean_motion_ddot": 0,
        "tle_line1": "1 29942U 99025JQ  25338.16427709  .00003709  00000+0  14256-2 0  9996",
        "tle_line2": "2 29942  98.6384  44.0640 0048700 301.7349  57.9092 14.30363789977469"
      },
      "geometry": {
        "type": "Point",
        "coordinates": [
          41.017141443852175,
          22.090108585194557
        ]
      }
    },
    {
      "type": "Feature",
      "properties": {
        "norad_id": 29943,
        "name": "FENGYUN 1C DEB",
        "group": "fengyun-1c-debris",
        "lat": -32.5986222079303,
        "lon": 161.0253353880494,
        "alt_km": 846.6514763195491,
        "timestamp": "2025-12-04T15:47:54.370571+00:00",
        "meta_object_name": "FENGYUN 1C DEB",
        "meta_object_id": "1999-025JR",
        "meta_epoch": "2025-12-04T06:19:33.610944",
        "meta_mean_motion": 14.09668521,
        "meta_eccentricity": 0.00346403,
        "meta_inclination": 98.727,
        "meta_ra_of_asc_node": 346.2798,
        "meta_arg_of_pericenter": 251.6359,
        "meta_mean_anomaly": 119.6998,
        "meta_ephemeris_type": 0,
        "meta_classification_type": "U",
        "meta_norad_cat_id": 29943,
        "meta_element_set_no": 999,
        "meta_rev_at_epoch": 97187,
        "meta_bstar": 9.2686958e-05,
        "meta_mean_motion_dot": 1.2e-06,
        "meta_mean_motion_ddot": 0,
        "tle_line1": "1 29943U 99025JR  25338.26358346  .00000120  00000+0  92687-4 0  9998",
        "tle_line2": "2 29943  98.7270 346.2798 0034640 251.6359 119.6998 14.09668521971876"
      },
      "geometry": {
        "type": "Point",
        "coordinates": [
          161.0253353880494,
          -32.5986222079303
        ]
      }
    },
    {
      "type": "Feature",
      "properties": {
        "norad_id": 29944,
        "name": "FENGYUN 1C DEB",
        "group": "fengyun-1c-debris",
        "lat": -72.99708810738822,
        "lon": -57.11687572062013,
        "alt_km": 508.9771611731794,
        "timestamp": "2025-12-04T15:47:54.370582+00:00",
        "meta_object_name": "FENGYUN 1C DEB",
        "meta_object_id": "1999-025JS",
        "meta_epoch": "2025-12-04T06:26:42.114336",
        "meta_mean_motion": 14.87273264,
        "meta_eccentricity": 0.01669561,
        "meta_inclination": 99.002,
        "meta_ra_of_asc_node": 271.2147,
        "meta_arg_of_pericenter": 259.2124,
        "meta_mean_anomaly": 99.0257,
        "meta_ephemeris_type": 0,
        "meta_classification_type": "U",
        "meta_norad_cat_id": 29944,
        "meta_element_set_no": 999,
        "meta_rev_at_epoch": 328,
        "meta_bstar": 0.0017464088,
        "meta_mean_motion_dot": 0.00020327,
        "meta_mean_motion_ddot": 0,
        "tle_line1": "1 29944U 99025JS  25338.26854299  .00020327  00000+0  17464-2 0  9996",
        "tle_line2": "2 29944  99.0020 271.2147 0166956 259.2124  99.0257 14.87273264  3281"
      },
      "geometry": {
        "type": "Point",
        "coordinates": [
          -57.11687572062013,
          -72.99708810738822
        ]
      }
    }
  ]
}